[{"OBJECT_NAME":"STARLINK-4548","OBJECT_ID":"2022-097AV","EPOCH":"2026-03-11T08:58:21.497952","MEAN_MOTION":15.08841744,"ECCENTRICITY":0.0001054,"INCLINATION":53.2168,"RA_OF_ASC_NODE":96.1738,"ARG_OF_PERICENTER":86.9765,"MEAN_ANOMALY":273.1347,"EPHEMERIS_TYPE":0,"CLASSIFICATION_TYPE":"U","NORAD_CAT_ID":53431,"ELEMENT_SET_NO":999,"REV_AT_EPOCH":19904,"BSTAR":4.9502e-5,"MEAN_MOTION_DOT":5.0e-6,"MEAN_MOTION_DDOT":0},{"OBJECT_NAME":"STARLINK-4557","OBJECT_ID":"2022-097AW","EPOCH":"2026-03-11T10:54:58.586400","MEAN_MOTION":15.08835164,"ECCENTRICITY":0.0001344,"INCLINATION":53.2169,"RA_OF_ASC_NODE":95.958,"ARG_OF_PERICENTER":96.062,"MEAN_ANOMALY":264.0526,"EPHEMERIS_TYPE":0,"CLASSIFICATION_TYPE":"U","NORAD_CAT_ID":53432,"ELEMENT_SET_NO":999,"REV_AT_EPOCH":19905,"BSTAR":3.116e-5,"MEAN_MOTION_DOT":2.08e-6,"MEAN_MOTION_DDOT":0},{"OBJECT_NAME":"STARLINK-4549","OBJECT_ID":"2022-097AX","EPOCH":"2026-03-11T08:16:01.923744","MEAN_MOTION":15.08840685,"ECCENTRICITY":0.0001376,"INCLINATION":53.2168,"RA_OF_ASC_NODE":96.6899,"ARG_OF_PERICENTER":83.9877,"MEAN_ANOMALY":276.1272,"EPHEMERIS_TYPE":0,"CLASSIFICATION_TYPE":"U","NORAD_CAT_ID":53433,"ELEMENT_SET_NO":999,"REV_AT_EPOCH":19901,"BSTAR":3.9847e-5,"MEAN_MOTION_DOT":3.46e-6,"MEAN_MOTION_DDOT":0},{"OBJECT_NAME":"STARLINK-4498","OBJECT_ID":"2022-097AY","EPOCH":"2026-03-11T09:13:46.085088","MEAN_MOTION":15.09189118,"ECCENTRICITY":0.0002248,"INCLINATION":53.2169,"RA_OF_ASC_NODE":96.2372,"ARG_OF_PERICENTER":153.6256,"MEAN_ANOMALY":206.4851,"EPHEMERIS_TYPE":0,"CLASSIFICATION_TYPE":"U","NORAD_CAT_ID":53434,"ELEMENT_SET_NO":999,"REV_AT_EPOCH":19905,"BSTAR":0.0027422,"MEAN_MOTION_DOT":0.0004405,"MEAN_MOTION_DDOT":0},{"OBJECT_NAME":"STARLINK-4542","OBJECT_ID":"2022-097AZ","EPOCH":"2026-03-11T11:00:16.236864","MEAN_MOTION":15.08846273,"ECCENTRICITY":0.0001162,"INCLINATION":53.2174,"RA_OF_ASC_NODE":95.9805,"ARG_OF_PERICENTER":86.384,"MEAN_ANOMALY":273.7285,"EPHEMERIS_TYPE":0,"CLASSIFICATION_TYPE":"U","NORAD_CAT_ID":53435,"ELEMENT_SET_NO":999,"REV_AT_EPOCH":19903,"BSTAR":0.00012946,"MEAN_MOTION_DOT":1.773e-5,"MEAN_MOTION_DDOT":0},{"OBJECT_NAME":"STARLINK-4527","OBJECT_ID":"2022-097BA","EPOCH":"2026-03-11T10:44:23.203392","MEAN_MOTION":15.08813335,"ECCENTRICITY":0.0001601,"INCLINATION":53.2166,"RA_OF_ASC_NODE":95.9092,"ARG_OF_PERICENTER":90.521,"MEAN_ANOMALY":269.5966,"EPHEMERIS_TYPE":0,"CLASSIFICATION_TYPE":"U","NORAD_CAT_ID":53436,"ELEMENT_SET_NO":999,"REV_AT_EPOCH":19905,"BSTAR":0.00028838,"MEAN_MOTION_DOT":4.301e-5,"MEAN_MOTION_DDOT":0},{"OBJECT_NAME":"STARLINK-4526","OBJECT_ID":"2022-097BC","EPOCH":"2026-03-11T10:39:03.398112","MEAN_MOTION":15.08836415,"ECCENTRICITY":0.0001236,"INCLINATION":53.2168,"RA_OF_ASC_NODE":95.8911,"ARG_OF_PERICENTER":91.0965,"MEAN_ANOMALY":269.0169,"EPHEMERIS_TYPE":0,"CLASSIFICATION_TYPE":"U","NORAD_CAT_ID":53438,"ELEMENT_SET_NO":999,"REV_AT_EPOCH":19906,"BSTAR":7.2118e-5,"MEAN_MOTION_DOT":8.6e-6,"MEAN_MOTION_DDOT":0},{"OBJECT_NAME":"STARLINK-4519","OBJECT_ID":"2022-097BD","EPOCH":"2026-03-11T10:56:21.061248","MEAN_MOTION":15.08838437,"ECCENTRICITY":0.0001327,"INCLINATION":53.2174,"RA_OF_ASC_NODE":95.9607,"ARG_OF_PERICENTER":106.5316,"MEAN_ANOMALY":253.5822,"EPHEMERIS_TYPE":0,"CLASSIFICATION_TYPE":"U","NORAD_CAT_ID":53439,"ELEMENT_SET_NO":999,"REV_AT_EPOCH":19906,"BSTAR":1.9339e-5,"MEAN_MOTION_DOT":2.0e-7,"MEAN_MOTION_DDOT":0},{"OBJECT_NAME":"STARLINK-4415","OBJECT_ID":"2022-099A","EPOCH":"2026-03-11T06:48:43.606656","MEAN_MOTION":15.05655174,"ECCENTRICITY":3.98e-5,"INCLINATION":97.6039,"RA_OF_ASC_NODE":192.7917,"ARG_OF_PERICENTER":156.3811,"MEAN_ANOMALY":203.7434,"EPHEMERIS_TYPE":0,"CLASSIFICATION_TYPE":"U","NORAD_CAT_ID":53465,"ELEMENT_SET_NO":999,"REV_AT_EPOCH":19627,"BSTAR":3.0039e-6,"MEAN_MOTION_DOT":-1.7e-7,"MEAN_MOTION_DDOT":0},{"OBJECT_NAME":"STARLINK-4398","OBJECT_ID":"2022-099B","EPOCH":"2026-03-11T07:51:23.167872","MEAN_MOTION":15.01482283,"ECCENTRICITY":0.0002794,"INCLINATION":97.6028,"RA_OF_ASC_NODE":191.8208,"ARG_OF_PERICENTER":82.9022,"MEAN_ANOMALY":277.252,"EPHEMERIS_TYPE":0,"CLASSIFICATION_TYPE":"U","NORAD_CAT_ID":53466,"ELEMENT_SET_NO":999,"REV_AT_EPOCH":19622,"BSTAR":0.0021314,"MEAN_MOTION_DOT":0.00027586,"MEAN_MOTION_DDOT":0},{"OBJECT_NAME":"STARLINK-4394","OBJECT_ID":"2022-099C","EPOCH":"2026-03-11T06:40:45.011136","MEAN_MOTION":15.0565762,"ECCENTRICITY":0.0001541,"INCLINATION":97.6033,"RA_OF_ASC_NODE":192.8427,"ARG_OF_PERICENTER":210.0078,"MEAN_ANOMALY":150.106,"EPHEMERIS_TYPE":0,"CLASSIFICATION_TYPE":"U","NORAD_CAT_ID":53467,"ELEMENT_SET_NO":999,"REV_AT_EPOCH":19628,"BSTAR":1.8702e-6,"MEAN_MOTION_DOT":-3.4e-7,"MEAN_MOTION_DDOT":0},{"OBJECT_NAME":"STARLINK-4400","OBJECT_ID":"2022-099D","EPOCH":"2026-03-11T07:46:21.612000","MEAN_MOTION":15.01255529,"ECCENTRICITY":0.0002089,"INCLINATION":97.6026,"RA_OF_ASC_NODE":191.8152,"ARG_OF_PERICENTER":84.3319,"MEAN_ANOMALY":275.8143,"EPHEMERIS_TYPE":0,"CLASSIFICATION_TYPE":"U","NORAD_CAT_ID":53468,"ELEMENT_SET_NO":999,"REV_AT_EPOCH":19622,"BSTAR":7.1654e-5,"MEAN_MOTION_DOT":8.62e-6,"MEAN_MOTION_DDOT":0},{"OBJECT_NAME":"STARLINK-4399","OBJECT_ID":"2022-099E","EPOCH":"2026-03-11T08:00:29.805984","MEAN_MOTION":15.05646868,"ECCENTRICITY":0.0001233,"INCLINATION":97.6035,"RA_OF_ASC_NODE":192.8607,"ARG_OF_PERICENTER":218.4646,"MEAN_ANOMALY":141.6493,"EPHEMERIS_TYPE":0,"CLASSIFICATION_TYPE":"U","NORAD_CAT_ID":53469,"ELEMENT_SET_NO":999,"REV_AT_EPOCH":19629,"BSTAR":4.0195e-5,"MEAN_MOTION_DOT":5.19e-6,"MEAN_MOTION_DDOT":0},{"OBJECT_NAME":"STARLINK-4393","OBJECT_ID":"2022-099F","EPOCH":"2026-03-11T07:43:21.423936","MEAN_MOTION":15.01261301,"ECCENTRICITY":0.000186,"INCLINATION":97.6016,"RA_OF_ASC_NODE":191.8085,"ARG_OF_PERICENTER":90.7452,"MEAN_ANOMALY":269.3986,"EPHEMERIS_TYPE":0,"CLASSIFICATION_TYPE":"U","NORAD_CAT_ID":53470,"ELEMENT_SET_NO":999,"REV_AT_EPOCH":19622,"BSTAR":6.6793e-6,"MEAN_MOTION_DOT":2.8e-7,"MEAN_MOTION_DDOT":0},{"OBJECT_NAME":"STARLINK-4316","OBJECT_ID":"2022-099G","EPOCH":"2026-03-11T08:28:24.657024","MEAN_MOTION":15.05638943,"ECCENTRICITY":8.53e-5,"INCLINATION":97.6033,"RA_OF_ASC_NODE":192.8275,"ARG_OF_PERICENTER":204.796,"MEAN_ANOMALY":155.3226,"EPHEMERIS_TYPE":0,"CLASSIFICATION_TYPE":"U","NORAD_CAT_ID":53471,"ELEMENT_SET_NO":999,"REV_AT_EPOCH":19629,"BSTAR":6.7586e-5,"MEAN_MOTION_DOT":9.14e-6,"MEAN_MOTION_DDOT":0},{"OBJECT_NAME":"STARLINK-4447","OBJECT_ID":"2022-099H","EPOCH":"2026-03-11T07:38:01.565952","MEAN_MOTION":15.01258389,"ECCENTRICITY":7.46e-5,"INCLINATION":97.6017,"RA_OF_ASC_NODE":191.8046,"ARG_OF_PERICENTER":111.6611,"MEAN_ANOMALY":248.4693,"EPHEMERIS_TYPE":0,"CLASSIFICATION_TYPE":"U","NORAD_CAT_ID":53472,"ELEMENT_SET_NO":999,"REV_AT_EPOCH":19622,"BSTAR":-5.5718e-6,"MEAN_MOTION_DOT":-1.3e-6,"MEAN_MOTION_DDOT":0},{"OBJECT_NAME":"STARLINK-4383","OBJECT_ID":"2022-099J","EPOCH":"2026-03-11T07:40:34.104288","MEAN_MOTION":15.0564629,"ECCENTRICITY":0.0001454,"INCLINATION":97.6027,"RA_OF_ASC_NODE":192.8634,"ARG_OF_PERICENTER":86.7194,"MEAN_ANOMALY":273.4199,"EPHEMERIS_TYPE":0,"CLASSIFICATION_TYPE":"U","NORAD_CAT_ID":53473,"ELEMENT_SET_NO":999,"REV_AT_EPOCH":19629,"BSTAR":2.4525e-5,"MEAN_MOTION_DOT":2.93e-6,"MEAN_MOTION_DDOT":0}]
