STARLINK-4548           
1 53431U 22097AV  26070.37385993  .00000500  00000+0  49502-4 0  9996
2 53431  53.2168  96.1738 0001054  86.9765 273.1347 15.08841744199040
STARLINK-4557           
1 53432U 22097AW  26070.45484475  .00000208  00000+0  31160-4 0  9997
2 53432  53.2169  95.9580 0001344  96.0620 264.0526 15.08835164199056
STARLINK-4549           
1 53433U 22097AX  26070.34446671  .00000346  00000+0  39847-4 0  9995
2 53433  53.2168  96.6899 0001376  83.9877 276.1272 15.08840685199013
STARLINK-4498           
1 53434U 22097AY  26070.38456117  .00044050  00000+0  27422-2 0  9990
2 53434  53.2169  96.2372 0002248 153.6256 206.4851 15.09189118199053
STARLINK-4542           
1 53435U 22097AZ  26070.45852126  .00001773  00000+0  12946-3 0  9990
2 53435  53.2174  95.9805 0001162  86.3840 273.7285 15.08846273199039
STARLINK-4527           
1 53436U 22097BA  26070.44749078  .00004301  00000+0  28838-3 0  9998
2 53436  53.2166  95.9092 0001601  90.5210 269.5966 15.08813335199059
STARLINK-4526           
1 53438U 22097BC  26070.44378933  .00000860  00000+0  72118-4 0  9995
2 53438  53.2168  95.8911 0001236  91.0965 269.0169 15.08836415199064
STARLINK-4519           
1 53439U 22097BD  26070.45579932  .00000020  00000+0  19339-4 0  9993
2 53439  53.2174  95.9607 0001327 106.5316 253.5822 15.08838437199068
STARLINK-4415           
1 53465U 22099A   26070.28383804 -.00000017  00000+0  30039-5 0  9994
2 53465  97.6039 192.7917 0000398 156.3811 203.7434 15.05655174196277
STARLINK-4398           
1 53466U 22099B   26070.32735148  .00027586  00000+0  21314-2 0  9994
2 53466  97.6028 191.8208 0002794  82.9022 277.2520 15.01482283196221
STARLINK-4394           
1 53467U 22099C   26070.27829874 -.00000034  00000+0  18702-5 0  9999
2 53467  97.6033 192.8427 0001541 210.0078 150.1060 15.05657620196283
STARLINK-4400           
1 53468U 22099D   26070.32386125  .00000862  00000+0  71654-4 0  9995
2 53468  97.6026 191.8152 0002089  84.3319 275.8143 15.01255529196227
STARLINK-4399           
1 53469U 22099E   26070.33367831  .00000519  00000+0  40195-4 0  9995
2 53469  97.6035 192.8607 0001233 218.4646 141.6493 15.05646868196296
STARLINK-4393           
1 53470U 22099F   26070.32177574  .00000028  00000+0  66793-5 0  9997
2 53470  97.6016 191.8085 0001860  90.7452 269.3986 15.01261301196227
STARLINK-4316           
1 53471U 22099G   26070.35306316  .00000914  00000+0  67586-4 0  9993
2 53471  97.6033 192.8275 0000853 204.7960 155.3226 15.05638943196293
STARLINK-4447           
1 53472U 22099H   26070.31807368 -.00000130  00000+0 -55718-5 0  9990
2 53472  97.6017 191.8046 0000746 111.6611 248.4693 15.01258389196224
STARLINK-4383           
1 53473U 22099J   26070.31983917  .00000293  00000+0  24525-4 0  9995
2 53473  97.6027 192.8634 0001454  86.7194 273.4199 15.05646290196297
